start=new Date('2022-07-04T00:00:00.000Z').valueOf();
sats=[{"MEAN_MOTION_DDOT":"0.0000000000000","RCS_SIZE":"LARGE","PERIOD":"93.373","DECAY_DATE":null,"OBJECT_TYPE":"PAYLOAD","SITE":"AFETR","PERIAPSIS":"436.539","LAUNCH_DATE":"2020-10-24","FILE":"3507188","REF_FRAME":"TEME","CLASSIFICATION_TYPE":"U","OBJECT_NAME":"STARLINK-1898","OBJECT_ID":"2020-074G","EPHEMERIS_TYPE":"0","BSTAR":"0.00011916000000","ECCENTRICITY":"0.00044980","REV_AT_EPOCH":"9473","TLE_LINE2":"2 46745  53.0518 182.5439 0004498  21.4385 338.6807 15.42204862 94732","RA_OF_ASC_NODE":"182.5439","ELEMENT_SET_NO":"999","TIME_SYSTEM":"UTC","COUNTRY_CODE":"US","ARG_OF_PERICENTER":"21.4385","MEAN_ANOMALY":"338.6807","TLE_LINE1":"1 46745U 20074G   22184.40657081  .00004784  00000-0  11916-3 0  9991","GP_ID":"207328147","CENTER_NAME":"EARTH","NORAD_CAT_ID":"46745","MEAN_MOTION_DOT":"0.00004784","APOAPSIS":"442.672","INCLINATION":"53.0518","EPOCH":"2022-07-03T09:45:27.717984","MEAN_MOTION":"15.42204862","SEMIMAJOR_AXIS":"6817.740","MEAN_ELEMENT_THEORY":"SGP4"},{"SITE":"AFETR","OBJECT_TYPE":"PAYLOAD","DECAY_DATE":null,"MEAN_MOTION_DDOT":"0.0000000000000","RCS_SIZE":"LARGE","PERIOD":"95.592","LAUNCH_DATE":"2020-10-24","PERIAPSIS":"546.007","CLASSIFICATION_TYPE":"U","OBJECT_ID":"2020-074H","OBJECT_NAME":"STARLINK-1905","EPHEMERIS_TYPE":"0","FILE":"3507292","REF_FRAME":"TEME","TIME_SYSTEM":"UTC","ECCENTRICITY":"0.00017560","BSTAR":"0.00004642300000","TLE_LINE2":"2 46746  53.0535 238.8809 0001756  54.6445 305.4708 15.06397032 93976","ELEMENT_SET_NO":"999","RA_OF_ASC_NODE":"238.8809","REV_AT_EPOCH":"9397","MEAN_ANOMALY":"305.4708","ARG_OF_PERICENTER":"54.6445","COUNTRY_CODE":"US","GP_ID":"207356621","TLE_LINE1":"1 46746U 20074H   22184.84253533  .00000410  00000-0  46423-4 0  9998","MEAN_MOTION_DOT":"0.00000410","CENTER_NAME":"EARTH","NORAD_CAT_ID":"46746","MEAN_ELEMENT_THEORY":"SGP4","SEMIMAJOR_AXIS":"6925.358","INCLINATION":"53.0535","APOAPSIS":"548.439","MEAN_MOTION":"15.06397032","EPOCH":"2022-07-03T20:13:15.052512"},{"COUNTRY_CODE":"US","ARG_OF_PERICENTER":"72.2375","MEAN_ANOMALY":"287.8777","GP_ID":"207356359","TLE_LINE1":"1 46747U 20074J   22184.89045228 -.00000184  00000-0  65669-5 0  9997","NORAD_CAT_ID":"46747","CENTER_NAME":"EARTH","MEAN_MOTION_DOT":"-0.00000184","EPOCH":"2022-07-03T21:22:15.076992","MEAN_MOTION":"15.06405017","APOAPSIS":"548.237","INCLINATION":"53.0546","SEMIMAJOR_AXIS":"6925.333","MEAN_ELEMENT_THEORY":"SGP4","PERIOD":"95.592","RCS_SIZE":"LARGE","MEAN_MOTION_DDOT":"0.0000000000000","DECAY_DATE":null,"OBJECT_TYPE":"PAYLOAD","SITE":"AFETR","PERIAPSIS":"546.159","LAUNCH_DATE":"2020-10-24","REF_FRAME":"TEME","FILE":"3507292","OBJECT_NAME":"STARLINK-1908","OBJECT_ID":"2020-074J","EPHEMERIS_TYPE":"0","CLASSIFICATION_TYPE":"U","RA_OF_ASC_NODE":"238.6672","TLE_LINE2":"2 46747  53.0546 238.6672 0001500  72.2375 287.8777 15.06405017 93983","ELEMENT_SET_NO":"999","REV_AT_EPOCH":"9398","BSTAR":"0.00000656690000","ECCENTRICITY":"0.00015000","TIME_SYSTEM":"UTC"},{"MEAN_ELEMENT_THEORY":"SGP4","SEMIMAJOR_AXIS":"6925.338","INCLINATION":"53.0534","APOAPSIS":"548.136","MEAN_MOTION":"15.06403463","EPOCH":"2022-07-03T15:10:42.418560","MEAN_MOTION_DOT":"-0.00000109","CENTER_NAME":"EARTH","NORAD_CAT_ID":"46748","TLE_LINE1":"1 46748U 20074K   22184.63243540 -.00000109  00000-0  11557-4 0  9990","GP_ID":"207355123","MEAN_ANOMALY":"280.4893","ARG_OF_PERICENTER":"79.6248","COUNTRY_CODE":"US","TIME_SYSTEM":"UTC","BSTAR":"0.00001155700000","ECCENTRICITY":"0.00013470","TLE_LINE2":"2 46748  53.0534 239.8254 0001347  79.6248 280.4893 15.06403463 93946","RA_OF_ASC_NODE":"239.8254","ELEMENT_SET_NO":"999","REV_AT_EPOCH":"9394","CLASSIFICATION_TYPE":"U","OBJECT_NAME":"STARLINK-1910","OBJECT_ID":"2020-074K","EPHEMERIS_TYPE":"0","FILE":"3507292","REF_FRAME":"TEME","LAUNCH_DATE":"2020-10-24","PERIAPSIS":"546.270","SITE":"AFETR","OBJECT_TYPE":"PAYLOAD","DECAY_DATE":null,"MEAN_MOTION_DDOT":"0.0000000000000","RCS_SIZE":"LARGE","PERIOD":"95.592"},{"ARG_OF_PERICENTER":"58.5305","COUNTRY_CODE":"US","MEAN_ANOMALY":"301.5816","TLE_LINE1":"1 46749U 20074L   22184.83884675 -.00000585  00000-0 -20378-4 0  9993","GP_ID":"207355373","CENTER_NAME":"EARTH","NORAD_CAT_ID":"46749","MEAN_MOTION_DOT":"-0.00000585","INCLINATION":"53.0536","APOAPSIS":"548.131","MEAN_MOTION":"15.06405813","EPOCH":"2022-07-03T20:07:56.359200","MEAN_ELEMENT_THEORY":"SGP4","SEMIMAJOR_AXIS":"6925.331","DECAY_DATE":null,"MEAN_MOTION_DDOT":"0.0000000000000","RCS_SIZE":"LARGE","PERIOD":"95.592","SITE":"AFETR","OBJECT_TYPE":"PAYLOAD","PERIAPSIS":"546.260","LAUNCH_DATE":"2020-10-24","FILE":"3507292","REF_FRAME":"TEME","CLASSIFICATION_TYPE":"U","OBJECT_ID":"2020-074L","OBJECT_NAME":"STARLINK-1911","EPHEMERIS_TYPE":"0","BSTAR":"-0.00002037800000","ECCENTRICITY":"0.00013510","ELEMENT_SET_NO":"999","TLE_LINE2":"2 46749  53.0536 238.9010 0001351  58.5305 301.5816 15.06405813 93978","RA_OF_ASC_NODE":"238.9010","REV_AT_EPOCH":"9397","TIME_SYSTEM":"UTC"},{"NORAD_CAT_ID":"46751","CENTER_NAME":"EARTH","MEAN_MOTION_DOT":"0.00004612","EPOCH":"2022-07-03T15:16:01.671744","MEAN_MOTION":"15.06422257","APOAPSIS":"548.028","INCLINATION":"53.0531","SEMIMAJOR_AXIS":"6925.280","MEAN_ELEMENT_THEORY":"SGP4","COUNTRY_CODE":"US","ARG_OF_PERICENTER":"80.5155","MEAN_ANOMALY":"279.5977","GP_ID":"207356122","TLE_LINE1":"1 46751U 20074N   22184.63613046  .00004612  00000-0  32812-3 0  9994","REF_FRAME":"TEME","FILE":"3507292","OBJECT_NAME":"STARLINK-1920","EPHEMERIS_TYPE":"0","OBJECT_ID":"2020-074N","CLASSIFICATION_TYPE":"U","RA_OF_ASC_NODE":"239.8064","TLE_LINE2":"2 46751  53.0531 239.8064 0001274  80.5155 279.5977 15.06422257 93947","REV_AT_EPOCH":"9394","ELEMENT_SET_NO":"999","BSTAR":"0.00032812000000","ECCENTRICITY":"0.00012740","TIME_SYSTEM":"UTC","RCS_SIZE":"LARGE","PERIOD":"95.591","MEAN_MOTION_DDOT":"0.0000000000000","DECAY_DATE":null,"OBJECT_TYPE":"PAYLOAD","SITE":"AFETR","PERIAPSIS":"546.263","LAUNCH_DATE":"2020-10-24"},{"OBJECT_NAME":"STARLINK-1921","OBJECT_ID":"2020-074P","EPHEMERIS_TYPE":"0","CLASSIFICATION_TYPE":"U","REF_FRAME":"TEME","FILE":"3507292","TIME_SYSTEM":"UTC","REV_AT_EPOCH":"9397","TLE_LINE2":"2 46752  53.0521 238.8444 0001576  45.4634 314.6484 15.06414984 93970","RA_OF_ASC_NODE":"238.8444","ELEMENT_SET_NO":"999","BSTAR":"0.00005491400000","ECCENTRICITY":"0.00015760","SITE":"AFETR","OBJECT_TYPE":"PAYLOAD","DECAY_DATE":null,"MEAN_MOTION_DDOT":"0.0000000000000","RCS_SIZE":"LARGE","PERIOD":"95.591","LAUNCH_DATE":"2020-10-24","PERIAPSIS":"546.076","MEAN_MOTION_DOT":"0.00000537","NORAD_CAT_ID":"46752","CENTER_NAME":"EARTH","MEAN_ELEMENT_THEORY":"SGP4","SEMIMAJOR_AXIS":"6925.303","MEAN_MOTION":"15.06414984","EPOCH":"2022-07-03T20:18:33.523776","INCLINATION":"53.0521","APOAPSIS":"548.259","MEAN_ANOMALY":"314.6484","ARG_OF_PERICENTER":"45.4634","COUNTRY_CODE":"US","TLE_LINE1":"1 46752U 20074P   22184.84622134  .00000537  00000-0  54914-4 0  9996","GP_ID":"207356859"},{"TIME_SYSTEM":"UTC","RA_OF_ASC_NODE":"238.7052","TLE_LINE2":"2 46753  53.0546 238.7052 0001450  65.7726 294.3414 15.06405459 93985","ELEMENT_SET_NO":"999","REV_AT_EPOCH":"9398","BSTAR":"0.00003043500000","ECCENTRICITY":"0.00014500","OBJECT_ID":"2020-074Q","OBJECT_NAME":"STARLINK-1922","EPHEMERIS_TYPE":"0","CLASSIFICATION_TYPE":"U","REF_FRAME":"TEME","FILE":"3507292","LAUNCH_DATE":"2020-10-24","PERIAPSIS":"546.193","OBJECT_TYPE":"PAYLOAD","SITE":"AFETR","RCS_SIZE":"LARGE","MEAN_MOTION_DDOT":"0.0000000000000","PERIOD":"95.592","DECAY_DATE":null,"SEMIMAJOR_AXIS":"6925.332","MEAN_ELEMENT_THEORY":"SGP4","EPOCH":"2022-07-03T21:06:19.437696","MEAN_MOTION":"15.06405459","APOAPSIS":"548.201","INCLINATION":"53.0546","MEAN_MOTION_DOT":"0.00000172","NORAD_CAT_ID":"46753","CENTER_NAME":"EARTH","GP_ID":"207355623","TLE_LINE1":"1 46753U 20074Q   22184.87939164  .00000172  00000-0  30435-4 0  9991","MEAN_ANOMALY":"294.3414","COUNTRY_CODE":"US","ARG_OF_PERICENTER":"65.7726"},{"TLE_LINE1":"1 46754U 20074R   22184.88676643 -.00000021  00000-0  17497-4 0  9990","GP_ID":"207355873","ARG_OF_PERICENTER":"72.3940","COUNTRY_CODE":"US","MEAN_ANOMALY":"287.7186","MEAN_MOTION":"15.06402742","EPOCH":"2022-07-03T21:16:56.619552","INCLINATION":"53.0539","APOAPSIS":"548.071","MEAN_ELEMENT_THEORY":"SGP4","SEMIMAJOR_AXIS":"6925.340","NORAD_CAT_ID":"46754","CENTER_NAME":"EARTH","MEAN_MOTION_DOT":"-0.00000021","PERIAPSIS":"546.339","LAUNCH_DATE":"2020-10-24","DECAY_DATE":null,"MEAN_MOTION_DDOT":"0.0000000000000","RCS_SIZE":"LARGE","PERIOD":"95.592","SITE":"AFETR","OBJECT_TYPE":"PAYLOAD","REV_AT_EPOCH":"9398","TLE_LINE2":"2 46754  53.0539 238.6657 0001250  72.3940 287.7186 15.06402742 93982","ELEMENT_SET_NO":"999","RA_OF_ASC_NODE":"238.6657","BSTAR":"0.00001749700000","ECCENTRICITY":"0.00012500","TIME_SYSTEM":"UTC","REF_FRAME":"TEME","FILE":"3507292","OBJECT_NAME":"STARLINK-1923","EPHEMERIS_TYPE":"0","OBJECT_ID":"2020-074R","CLASSIFICATION_TYPE":"U"},{"INCLINATION":"53.0541","APOAPSIS":"548.269","MEAN_MOTION":"15.06412502","EPOCH":"2022-07-03T21:24:15.100416","MEAN_ELEMENT_THEORY":"SGP4","SEMIMAJOR_AXIS":"6925.310","CENTER_NAME":"EARTH","NORAD_CAT_ID":"46755","MEAN_MOTION_DOT":"0.00001866","GP_ID":"207356622","TLE_LINE1":"1 46755U 20074S   22184.89184144  .00001866  00000-0  14407-3 0  9996","ARG_OF_PERICENTER":"54.9495","COUNTRY_CODE":"US","MEAN_ANOMALY":"305.1642","ECCENTRICITY":"0.00015800","BSTAR":"0.00014407000000","RA_OF_ASC_NODE":"243.6450","TLE_LINE2":"2 46755  53.0541 243.6450 0001580  54.9495 305.1642 15.06412502 93910","ELEMENT_SET_NO":"999","REV_AT_EPOCH":"9391","TIME_SYSTEM":"UTC","FILE":"3507292","REF_FRAME":"TEME","CLASSIFICATION_TYPE":"U","EPHEMERIS_TYPE":"0","OBJECT_NAME":"STARLINK-1924","OBJECT_ID":"2020-074S","PERIAPSIS":"546.081","LAUNCH_DATE":"2020-10-24","DECAY_DATE":null,"RCS_SIZE":"LARGE","PERIOD":"95.591","MEAN_MOTION_DDOT":"0.0000000000000","SITE":"AFETR","OBJECT_TYPE":"PAYLOAD"}];
